{
  "norad_id": 52002,
  "name": "STARLINK-3668",
  "history": [
    {
      "epoch": "2026-03-28T20:06:28.492128Z",
      "apogee_km": 540.819369216536,
      "perigee_km": 538.6264076319067,
      "latitude_deg": 1.9570232461024534e-05,
      "longitude_deg": 165.3283587449361,
      "height_km": 540.6142467891165,
      "semi_major_axis_km": 6917.859888424221,
      "eccentricity": 0.0001585,
      "inclination_deg": 53.2172,
      "raan_deg": 293.1996,
      "arg_perigee_deg": 89.7904,
      "mean_anomaly_deg": 270.327,
      "mean_motion_rev_day": 15.08846707
    },
    {
      "epoch": "2026-03-29T23:08:02.078016Z",
      "apogee_km": 540.8173507084375,
      "perigee_km": 538.6589736578353,
      "latitude_deg": -4.803002835352951e-05,
      "longitude_deg": 113.77244948938863,
      "height_km": 540.6977093180869,
      "semi_major_axis_km": 6917.875162183136,
      "eccentricity": 0.000156,
      "inclination_deg": 53.2174,
      "raan_deg": 288.1436,
      "arg_perigee_deg": 93.4057,
      "mean_anomaly_deg": 266.7113,
      "mean_motion_rev_day": 15.0884171
    },
    {
      "epoch": "2026-03-29T23:08:02.078880Z",
      "apogee_km": 540.8170048146785,
      "perigee_km": 538.6593195515934,
      "latitude_deg": -4.342086875830956e-05,
      "longitude_deg": 113.77244930654007,
      "height_km": 540.6976887699388,
      "semi_major_axis_km": 6917.875162183136,
      "eccentricity": 0.00015595,
      "inclination_deg": 53.2174,
      "raan_deg": 288.1436,
      "arg_perigee_deg": 93.4057,
      "mean_anomaly_deg": 266.7113,
      "mean_motion_rev_day": 15.0884171
    }
  ]
}